CCSDS_OMM_VERS = 2.0
CREATION_DATE  = 
ORIGINATOR     = 

OBJECT_NAME    = SL-3 R/B
OBJECT_ID      = 1988-032B
CENTER_NAME    = EARTH
REF_FRAME      = TEME
TIME_SYSTEM    = UTC
MEAN_ELEMENT_THEORY = SGP/SGP4

EPOCH          = 2026-03-18T05:24:03.324672
MEAN_MOTION    = 15.20005937
ECCENTRICITY   = .0025188
INCLINATION    = 97.5198
RA_OF_ASC_NODE = 60.4463
ARG_OF_PERICENTER = 200.3426
MEAN_ANOMALY   = 159.6808

EPHEMERIS_TYPE = 0
CLASSIFICATION_TYPE = U
NORAD_CAT_ID   = 19046
ELEMENT_SET_NO = 999
REV_AT_EPOCH   = 5340
BSTAR          = .20592394E-3
MEAN_MOTION_DOT = .4401E-4
MEAN_MOTION_DDOT = 0

CCSDS_OMM_VERS = 2.0
CREATION_DATE  = 
ORIGINATOR     = 

OBJECT_NAME    = SL-16 R/B
OBJECT_ID      = 1988-039B
CENTER_NAME    = EARTH
REF_FRAME      = TEME
TIME_SYSTEM    = UTC
MEAN_ELEMENT_THEORY = SGP/SGP4

EPOCH          = 2026-03-18T07:04:39.016128
MEAN_MOTION    = 14.19617718
ECCENTRICITY   = .00231975
INCLINATION    = 71.0147
RA_OF_ASC_NODE = 50.3501
ARG_OF_PERICENTER = 321.8864
MEAN_ANOMALY   = 38.0619

EPHEMERIS_TYPE = 0
CLASSIFICATION_TYPE = U
NORAD_CAT_ID   = 19120
ELEMENT_SET_NO = 999
REV_AT_EPOCH   = 95960
BSTAR          = .28041912E-4
MEAN_MOTION_DOT = .11E-6
MEAN_MOTION_DDOT = 0

CCSDS_OMM_VERS = 2.0
CREATION_DATE  = 
ORIGINATOR     = 

OBJECT_NAME    = COSMOS 1953
OBJECT_ID      = 1988-050A
CENTER_NAME    = EARTH
REF_FRAME      = TEME
TIME_SYSTEM    = UTC
MEAN_ELEMENT_THEORY = SGP/SGP4

EPOCH          = 2026-03-18T03:15:16.631424
MEAN_MOTION    = 15.28664534
ECCENTRICITY   = .00126646
INCLINATION    = 82.5101
RA_OF_ASC_NODE = 149.7532
ARG_OF_PERICENTER = 96.0654
MEAN_ANOMALY   = 264.2029

EPHEMERIS_TYPE = 0
CLASSIFICATION_TYPE = U
NORAD_CAT_ID   = 19210
ELEMENT_SET_NO = 999
REV_AT_EPOCH   = 3907
BSTAR          = .20649852E-3
MEAN_MOTION_DOT = .5801E-4
MEAN_MOTION_DDOT = 0

CCSDS_OMM_VERS = 2.0
CREATION_DATE  = 
ORIGINATOR     = 

OBJECT_NAME    = SL-8 R/B
OBJECT_ID      = 1988-053B
CENTER_NAME    = EARTH
REF_FRAME      = TEME
TIME_SYSTEM    = UTC
MEAN_ELEMENT_THEORY = SGP/SGP4

EPOCH          = 2026-03-18T03:21:27.798912
MEAN_MOTION    = 14.38921342
ECCENTRICITY   = .00215338
INCLINATION    = 74.0450
RA_OF_ASC_NODE = 96.8888
ARG_OF_PERICENTER = 275.0720
MEAN_ANOMALY   = 153.2675

EPHEMERIS_TYPE = 0
CLASSIFICATION_TYPE = U
NORAD_CAT_ID   = 19257
ELEMENT_SET_NO = 999
REV_AT_EPOCH   = 97781
BSTAR          = .10099107E-3
MEAN_MOTION_DOT = .285E-5
MEAN_MOTION_DDOT = 0

CCSDS_OMM_VERS = 2.0
CREATION_DATE  = 
ORIGINATOR     = 

OBJECT_NAME    = COSMOS 1975
OBJECT_ID      = 1988-093A
CENTER_NAME    = EARTH
REF_FRAME      = TEME
TIME_SYSTEM    = UTC
MEAN_ELEMENT_THEORY = SGP/SGP4

EPOCH          = 2026-03-18T02:33:17.254080
MEAN_MOTION    = 15.28183045
ECCENTRICITY   = .00128625
INCLINATION    = 82.5167
RA_OF_ASC_NODE = 109.2340
ARG_OF_PERICENTER = 135.6131
MEAN_ANOMALY   = 224.6142

EPHEMERIS_TYPE = 0
CLASSIFICATION_TYPE = U
NORAD_CAT_ID   = 19573
ELEMENT_SET_NO = 999
REV_AT_EPOCH   = 2069
BSTAR          = .18108656E-3
MEAN_MOTION_DOT = .5017E-4
MEAN_MOTION_DDOT = 0

CCSDS_OMM_VERS = 2.0
CREATION_DATE  = 
ORIGINATOR     = 

OBJECT_NAME    = SL-14 R/B
OBJECT_ID      = 1988-093B
CENTER_NAME    = EARTH
REF_FRAME      = TEME
TIME_SYSTEM    = UTC
MEAN_ELEMENT_THEORY = SGP/SGP4

EPOCH          = 2026-03-18T07:01:48.886752
MEAN_MOTION    = 14.85667188
ECCENTRICITY   = .00210672
INCLINATION    = 82.5323
RA_OF_ASC_NODE = 33.9679
ARG_OF_PERICENTER = 14.1297
MEAN_ANOMALY   = 98.6018

EPHEMERIS_TYPE = 0
CLASSIFICATION_TYPE = U
NORAD_CAT_ID   = 19574
ELEMENT_SET_NO = 999
REV_AT_EPOCH   = 229
BSTAR          = .608052E-4
MEAN_MOTION_DOT = .553E-5
MEAN_MOTION_DDOT = 0

CCSDS_OMM_VERS = 2.0
CREATION_DATE  = 
ORIGINATOR     = 

OBJECT_NAME    = SL-16 R/B
OBJECT_ID      = 1988-102B
CENTER_NAME    = EARTH
REF_FRAME      = TEME
TIME_SYSTEM    = UTC
MEAN_ELEMENT_THEORY = SGP/SGP4

EPOCH          = 2026-03-18T07:27:04.459392
MEAN_MOTION    = 14.16156064
ECCENTRICITY   = .00145704
INCLINATION    = 70.9991
RA_OF_ASC_NODE = 133.3590
ARG_OF_PERICENTER = 348.1135
MEAN_ANOMALY   = 11.9642

EPHEMERIS_TYPE = 0
CLASSIFICATION_TYPE = U
NORAD_CAT_ID   = 19650
ELEMENT_SET_NO = 999
REV_AT_EPOCH   = 92811
BSTAR          = .18172862E-4
MEAN_MOTION_DOT = -.12E-6
MEAN_MOTION_DDOT = 0

CCSDS_OMM_VERS = 2.0
CREATION_DATE  = 
ORIGINATOR     = 

OBJECT_NAME    = INTERCOSMOS 24
OBJECT_ID      = 1989-080A
CENTER_NAME    = EARTH
REF_FRAME      = TEME
TIME_SYSTEM    = UTC
MEAN_ELEMENT_THEORY = SGP/SGP4

EPOCH          = 2026-03-18T07:14:16.947456
MEAN_MOTION    = 12.59570532
ECCENTRICITY   = .11866692
INCLINATION    = 82.6017
RA_OF_ASC_NODE = 98.7948
ARG_OF_PERICENTER = 272.8107
MEAN_ANOMALY   = 73.8069

EPHEMERIS_TYPE = 0
CLASSIFICATION_TYPE = U
NORAD_CAT_ID   = 20261
ELEMENT_SET_NO = 999
REV_AT_EPOCH   = 66788
BSTAR          = .17638733E-3
MEAN_MOTION_DOT = .593E-5
MEAN_MOTION_DDOT = 0

CCSDS_OMM_VERS = 2.0
CREATION_DATE  = 
ORIGINATOR     = 

OBJECT_NAME    = SL-14 R/B
OBJECT_ID      = 1989-080C
CENTER_NAME    = EARTH
REF_FRAME      = TEME
TIME_SYSTEM    = UTC
MEAN_ELEMENT_THEORY = SGP/SGP4

EPOCH          = 2026-03-18T06:40:16.092192
MEAN_MOTION    = 12.50503360
ECCENTRICITY   = .12307747
INCLINATION    = 82.5967
RA_OF_ASC_NODE = 167.6751
ARG_OF_PERICENTER = 165.1266
MEAN_ANOMALY   = 198.9758

EPHEMERIS_TYPE = 0
CLASSIFICATION_TYPE = U
NORAD_CAT_ID   = 20262
ELEMENT_SET_NO = 999
REV_AT_EPOCH   = 66122
BSTAR          = .1351064E-3
MEAN_MOTION_DOT = .471E-5
MEAN_MOTION_DDOT = 0

CCSDS_OMM_VERS = 2.0
CREATION_DATE  = 
ORIGINATOR     = 

OBJECT_NAME    = DELTA 1 R/B
OBJECT_ID      = 1989-089B
CENTER_NAME    = EARTH
REF_FRAME      = TEME
TIME_SYSTEM    = UTC
MEAN_ELEMENT_THEORY = SGP/SGP4

EPOCH          = 2026-03-18T02:30:59.346720
MEAN_MOTION    = 14.50670375
ECCENTRICITY   = .0070716
INCLINATION    = 97.0700
RA_OF_ASC_NODE = 283.2048
ARG_OF_PERICENTER = 95.8922
MEAN_ANOMALY   = 265.0342

EPHEMERIS_TYPE = 0
CLASSIFICATION_TYPE = U
NORAD_CAT_ID   = 20323
ELEMENT_SET_NO = 999
REV_AT_EPOCH   = 89695
BSTAR          = .98398653E-4
MEAN_MOTION_DOT = .364E-5
MEAN_MOTION_DDOT = 0

CCSDS_OMM_VERS = 2.0
CREATION_DATE  = 
ORIGINATOR     = 

OBJECT_NAME    = ARIANE 40 R/B
OBJECT_ID      = 1990-005H
CENTER_NAME    = EARTH
REF_FRAME      = TEME
TIME_SYSTEM    = UTC
MEAN_ELEMENT_THEORY = SGP/SGP4

EPOCH          = 2026-03-18T03:39:31.483872
MEAN_MOTION    = 14.39876092
ECCENTRICITY   = .00103782
INCLINATION    = 98.3065
RA_OF_ASC_NODE = 137.5610
ARG_OF_PERICENTER = 172.8021
MEAN_ANOMALY   = 187.3319

EPHEMERIS_TYPE = 0
CLASSIFICATION_TYPE = U
NORAD_CAT_ID   = 20443
ELEMENT_SET_NO = 999
REV_AT_EPOCH   = 89402
BSTAR          = .93601193E-4
MEAN_MOTION_DOT = .252E-5
MEAN_MOTION_DDOT = 0

CCSDS_OMM_VERS = 2.0
CREATION_DATE  = 
ORIGINATOR     = 

OBJECT_NAME    = DELTA 2 R/B(1)
OBJECT_ID      = 1990-008B
CENTER_NAME    = EARTH
REF_FRAME      = TEME
TIME_SYSTEM    = UTC
MEAN_ELEMENT_THEORY = SGP/SGP4

EPOCH          = 2026-03-17T20:11:10.801536
MEAN_MOTION    = 15.57035785
ECCENTRICITY   = .00824036
INCLINATION    = 35.6029
RA_OF_ASC_NODE = 121.3131
ARG_OF_PERICENTER = 334.1044
MEAN_ANOMALY   = 25.5582

EPHEMERIS_TYPE = 0
CLASSIFICATION_TYPE = U
NORAD_CAT_ID   = 20453
ELEMENT_SET_NO = 999
REV_AT_EPOCH   = 92740
BSTAR          = .53989317E-3
MEAN_MOTION_DOT = .47486E-3
MEAN_MOTION_DDOT = 0

